ZACUBE-1 (TSHEPISOSAT)  
1 39417U 13066B   24107.82718736  .00014244  00000+0  15064-2 0  9998
2 39417  97.7289  65.2307 0051764   5.8560 354.3251 14.88302791562456
WNISAT-1                
1 39423U 13066H   24107.47776760  .00002421  00000+0  47214-3 0  9994
2 39423  97.6752 306.8015 0170074 202.6174 156.7468 14.55002834551463
TRITON-1                
1 39427U 13066M   24107.94590835  .00008235  00000+0  11739-2 0  9998
2 39427  97.8423  27.9310 0102067 279.5796  79.3892 14.73473774557195
DELFI-N3XT              
1 39428U 13066N   24107.78128311  .00016577  00000+0  21644-2 0  9991
2 39428  97.8384  27.7851 0101160 288.0740  70.9471 14.76997303557021
GOMX-1                  
1 39430U 13066Q   24107.94659742  .00006297  00000+0  10513-2 0  9990
2 39430  97.7415 346.0276 0142764  87.4937 274.2601 14.63659667553901
CUBEBUG-2 (LO-74)       
1 39440U 13066AA  24107.84456710  .00009767  00000+0  11679-2 0  9999
2 39440  97.8087  52.8918 0072688 113.9025 246.9825 14.82462222559240
NEE-02 KRYSAOR          
1 39441U 13066AB  24107.77612253  .00005957  00000+0  76447-3 0  9990
2 39441  97.8180  48.9215 0076285 134.6264 226.1204 14.79528415558853
FUNCUBE-1 (AO-73)       
1 39444U 13066AE  24107.83228881  .00017753  00000+0  17618-2 0  9991
2 39444  97.7145  68.2139 0048629 347.6073  12.3946 14.90914412560963
UWE-3                   
1 39446U 13066AG  24107.82973159  .00011827  00000+0  13368-2 0  9991
2 39446  97.7759  58.9368 0063306  62.0178 298.7424 14.85169642559598
BRITE-CA1 (TORONTO)     
1 40020U 14033L   24107.86587788  .00002617  00000+0  43125-3 0  9991
2 40020  97.8676 247.1927 0082336 288.1643  71.0612 14.69107124525977
DUCHIFAT-1              
1 40021U 14033M   24107.91279295  .00026515  00000+0  18608-2 0  9999
2 40021  98.0870  88.7080 0011480 314.2917  45.7365 15.05081974534904
NANOSATC-BR1            
1 40024U 14033Q   24107.87619442  .00022004  00000+0  16961-2 0  9998
2 40024  98.0552  77.5291 0007989  28.4234 331.7424 15.01606834534042
QB50P1                  
1 40025U 14033R   24107.87978645  .00017467  00000+0  14637-2 0  9997
2 40025  98.0353  66.6979 0010130  10.2734 349.8692 14.98434812533697
QB50P2                  
1 40032U 14033Y   24107.86392948  .00015852  00000+0  13702-2 0  9998
2 40032  98.0012  58.7669 0009947  11.6191 348.5257 14.97254437533494
PERSEUS-M2              
1 40037U 14033AD  24107.79238410  .00005019  00000+0  52495-3 0  9995
2 40037  97.9241  38.3939 0014438  42.9225 317.3116 14.90025041532689
PERSEUS-M1              
1 40039U 14033AF  24107.74075945  .00005980  00000+0  62815-3 0  9998
2 40039  97.9051  34.5718 0014261  42.9816 317.2513 14.89774196532537
POLYITAN-1              
1 40042U 14033AJ  24107.85285451  .00023083  00000+0  18191-2 0  9990
2 40042  98.0575  69.7337 0013879 351.1875   8.9102 15.00700154533632
TIGRISAT                
1 40043U 14033AK  24107.69710980  .00007122  00000+0  95811-3 0  9994
2 40043  97.6897 273.1257 0056854 143.0076 217.5077 14.78394195528370
AEROCUBE 6A             
1 40045U 14033AM  24107.45887277  .00012903  00000+0  15764-2 0  9995
2 40045  97.6680 283.4315 0052463 124.0406 236.5806 14.82409003528640
AEROCUBE 6B             
1 40046U 14033AN  24107.73287348  .00014666  00000+0  17559-2 0  9992
2 40046  97.6639 282.3471 0051097 119.0035 241.6314 14.83265315528738
UKUBE-1                 
1 40074U 14037F   24107.75619552  .00016371  00000+0  15966-2 0  9990
2 40074  98.3414  33.9708 0002023 283.1334  76.9657 14.92531368529612
BRITE-PL2 (HEWELIUSZ)   
1 40119U 14049B   24107.78249858  .00005736  00000+0  62377-3 0  9996
2 40119  97.8776 207.7631 0015707 202.1551 157.8989 14.88367073523445
CP10 (EXOCUBE)          
1 40380U 15003E   24107.83045707  .00193923  00000+0  17501-2 0  9994
2 40380  99.1013 115.8044 0045406 329.7513  30.1121 15.66189408509765
AEROCUBE 5C             
1 40965U 15058B   24107.60853586  .00006164  00000+0  58594-3 0  9998
2 40965  64.7706 190.6045 0187073 327.2477  31.7140 14.82016913247902
AEROCUBE 7              
1 40966U 15058C   24107.56268444  .00008389  00000+0  76753-3 0  9995
2 40966  64.7682 185.0560 0182639 326.9638  32.0163 14.83670825247968
VELOX-II                
1 41171U 15077F   24107.56199797  .00156152  00000+0  22282-2 0  9998
2 41171  14.9880 180.2961 0002672 221.6114 138.4009 15.54320136462183
HORYU-4                 
1 41340U 16012D   24107.88878476  .00024029  00000+0  12652-2 0  9996
2 41340  31.0039  14.5712 0009751  64.5469 295.6178 15.14433781448849
E-ST@R-II               
1 41459U 16025D   24107.61881890  .00532943  10131-3  24876-2 0  9996
2 41459  98.1289 352.1972 0035172  96.6936 263.8335 15.82288720439940
RAVAN                   
1 41849U 16067B   24107.42173305  .00017917  00000+0  10328-2 0  9995
2 41849  98.0623 281.5675 0013204 235.5447 124.4535 15.12380703406644
CELTEE 1                
1 41850U 16067C   24107.37966361  .00010983  00000+0  76768-3 0  9990
2 41850  98.0986 273.7610 0001901  81.9459 278.1981 15.05499886406127
OPTICUBE 04             
1 41851U 16067D   24107.74945602  .00007131  00000+0  54608-3 0  9997
2 41851  98.0667 270.1680 0017543 262.1209  97.8023 15.02080325406019
AEROCUBE 8D             
1 41852U 16067E   24107.68108840  .00015955  00000+0  10820-2 0  9996
2 41852  98.1021 273.6776 0004428 316.7416  43.3462 15.06522515406135
AEROCUBE 8C             
1 41853U 16067F   24107.69248245  .00014545  00000+0  98848-3 0  9993
2 41853  98.0829 272.4244 0007608 241.1840 118.8623 15.06451662406123
PROMETHEUS 2-1          
1 41854U 16067G   24107.43722127  .00027169  00000+0  14846-2 0  9993
2 41854  98.0975 278.5462 0013226 264.9216  95.0504 15.14201550406388
PROMETHEUS 2-3          
1 41855U 16067H   24107.43280016  .00028622  00000+0  15643-2 0  9991
2 41855  98.0902 278.0902 0011182 275.0841  84.9113 15.14203829406383
DIDO-2                  
1 42000U 17008BE  24107.88802193  .00177274  00000+0  15623-2 0  9991
2 42000  97.1456 167.7610 0001263   5.0520 355.0754 15.68175976399131
AALTO-1                 
1 42775U 17036L   24107.79786634  .00100264  00000+0  13900-2 0  9993
2 42775  97.1140 137.1327 0007571  85.0141 275.1979 15.56693339379528
URSA MAIOR              
1 42776U 17036M   24107.80557516  .00176801  00000+0  16594-2 0  9993
2 42776  97.1103 140.3770 0005674  87.3231 272.8679 15.66600127379720
DIAMOND RED             
1 42783U 17036U   24107.89005850  .00849259  32769-3  19855-2 0  9997
2 42783  97.0907 147.1418 0003030 170.3726 189.7610 15.97038724380184
CICERO 6                
1 42793U 17036AE  24107.82174549  .00196254  00000+0  15302-2 0  9995
2 42793  97.0985 144.5763 0004416 101.2023 258.9737 15.71093194380102
CORVUS BC2              
1 42846U 17042X   24107.51084161  .00007485  00000+0  65434-3 0  9996
2 42846  97.3751 296.0749 0007414 265.8343  94.2032 14.97011249368210
CORVUS BC1              
1 42847U 17042Y   24107.47817340  .00007841  00000+0  68262-3 0  9993
2 42847  97.3761 296.4375 0006353 263.3483  96.7017 14.97164141368221
MIRATA                  
1 43015U 17073C   24107.62376570  .00041950  00000+0  20930-2 0  9995
2 43015  97.6049 353.1949 0180403 110.7308 251.3356 15.04225774347062
MAKERSAT 0              
1 43016U 17073D   24107.60799980  .00022921  00000+0  13407-2 0  9996
2 43016  97.5889 348.3633 0203884 129.2375 232.7141 14.95961999346708
CORVUS BC3              
1 43118U 18004H   24107.78870394  .00187579  00000+0  15115-2 0  9991
2 43118  97.2904 191.4851 0003337 128.9678 231.1882 15.70328099349225
GOMX-4B                 
1 43196U 18015E   24107.70883518  .00079384  00000+0  11494-2 0  9993
2 43196  97.6064 276.9869 0009710 182.5723 177.5483 15.55567638345940
GOMX-4A                 
1 43197U 18015F   24107.89019414  .00119311  00000+0  12927-2 0  9997
2 43197  97.5985 281.4239 0008302 174.6035 185.5314 15.63120508346266
CICERO 10               
1 43690U 18088A   24107.71240598  .00146379  00000+0  15802-2 0  9994
2 43690  85.0172 223.2831 0008206 172.5359 187.6029 15.63133040302550
PROXIMA I               
1 43694U 18088E   24107.78877987  .00378999  00000+0  19283-2 0  9995
2 43694  85.0083 216.5637 0003217 179.9160 180.2115 15.80448430303043
PROXIMA II              
1 43696U 18088G   24107.80816190  .00347370  00000+0  18778-2 0  9996
2 43696  85.0093 216.7138 0003070 176.9614 183.1678 15.79185069303020
SIRION PATHFINDER-2     
1 43759U 18099B   24107.75160322  .00010900  00000+0  83722-3 0  9999
2 43759  97.5379 165.6414 0014522 133.5458 226.6976 15.01836129293288
CORVUS BC4              
1 43767U 18099K   24107.89142597  .00010425  00000+0  81549-3 0  9994
2 43767  97.5215 163.1621 0008572 206.1578 153.9214 15.01205514293192
MOVE-II                 
1 43780U 18099Y   24107.90718421  .00036800  00000+0  20920-2 0  9996
2 43780  97.5270 171.5778 0008039 178.2469 181.8792 15.12756712293655
SPACEBEE-7              
1 43816U 18099BL  24107.73375438  .00026976  00000+0  16862-2 0  9997
2 43816  97.5535 172.2573 0011760 138.2638 221.9490 15.09354663293138
SPACEBEE-6              
1 43818U 18099BN  24107.71074523  .00054091  00000+0  26057-2 0  9994
2 43818  97.5462 176.6530 0010876 144.6616 215.5341 15.18488013293562
SHIELDS 1               
1 43850U 18104B   24107.58883536  .00020963  00000+0  60304-3 0  9999
2 43850  85.0240 324.8698 0009412 310.7936  49.2496 15.35617443296703
ZACUBE-2                
1 43907U 18111AH  24107.73649271  .01086011  61875-3  19082-2 0  9997
2 43907  97.0691 351.3020 0008483 165.3840 194.7687 16.02124797296537
SONATE                  
1 44400U 19038Q   24107.70505032  .00036988  00000+0  12278-2 0  9994
2 44400  97.7129  99.1976 0015290 331.5211  28.5192 15.31024371264661
